start=new Date('2022-12-30T00:00:00.000Z').valueOf();
sats=[{"APOAPSIS":"548.597","OBJECT_ID":"2019-074AK","BSTAR":"-0.00014149000000","RCS_SIZE":"LARGE","ELEMENT_SET_NO":"999","OBJECT_NAME":"STARLINK-1041","DECAY_DATE":null,"EPOCH":"2022-12-29T10:45:03.572064","ECCENTRICITY":"0.00019530","CLASSIFICATION_TYPE":"U","ARG_OF_PERICENTER":"47.0276","FILE":"3725790","COUNTRY_CODE":"US","TIME_SYSTEM":"UTC","REV_AT_EPOCH":"17241","GP_ID":"221735548","SITE":"AFETR","TLE_LINE2":"2 44746  53.0552  62.0886 0001953  47.0276 313.0876 15.06389770172410","MEAN_MOTION_DDOT":"0.0000000000000","LAUNCH_DATE":"2019-11-11","NORAD_CAT_ID":"44746","MEAN_MOTION_DOT":"-0.00002388","INCLINATION":"53.0552","MEAN_ELEMENT_THEORY":"SGP4","RA_OF_ASC_NODE":"62.0886","TLE_LINE1":"1 44746U 19074AK  22363.44795801 -.00002388  00000-0 -14149-3 0  9995","MEAN_MOTION":"15.06389770","MEAN_ANOMALY":"313.0876","SEMIMAJOR_AXIS":"6925.380","OBJECT_TYPE":"PAYLOAD","EPHEMERIS_TYPE":"0","CENTER_NAME":"EARTH","PERIAPSIS":"545.892","PERIOD":"95.593","REF_FRAME":"TEME"},{"RA_OF_ASC_NODE":"61.0529","MEAN_ELEMENT_THEORY":"SGP4","TLE_LINE1":"1 44747U 19074AL  22363.67650354 -.00001346  00000-0 -71537-4 0  9992","MEAN_MOTION_DOT":"-0.00001346","INCLINATION":"53.0558","SEMIMAJOR_AXIS":"6925.403","OBJECT_TYPE":"PAYLOAD","MEAN_MOTION":"15.06382283","MEAN_ANOMALY":"317.1475","CENTER_NAME":"EARTH","EPHEMERIS_TYPE":"0","PERIAPSIS":"546.004","PERIOD":"95.593","REF_FRAME":"TEME","APOAPSIS":"548.532","OBJECT_ID":"2019-074AL","BSTAR":"-0.00007153700000","EPOCH":"2022-12-29T16:14:09.905856","ECCENTRICITY":"0.00018250","RCS_SIZE":"LARGE","ELEMENT_SET_NO":"999","OBJECT_NAME":"STARLINK-1042","DECAY_DATE":null,"FILE":"3725914","COUNTRY_CODE":"US","CLASSIFICATION_TYPE":"U","ARG_OF_PERICENTER":"42.9656","TLE_LINE2":"2 44747  53.0558  61.0529 0001825  42.9656 317.1475 15.06382283172629","SITE":"AFETR","MEAN_MOTION_DDOT":"0.0000000000000","LAUNCH_DATE":"2019-11-11","NORAD_CAT_ID":"44747","TIME_SYSTEM":"UTC","REV_AT_EPOCH":"17262","GP_ID":"221744802"},{"SITE":"AFETR","TLE_LINE2":"2 44748  53.0548  63.3138 0001447  68.6029 291.5115 15.06399444172374","MEAN_MOTION_DDOT":"0.0000000000000","LAUNCH_DATE":"2019-11-11","NORAD_CAT_ID":"44748","TIME_SYSTEM":"UTC","REV_AT_EPOCH":"17237","GP_ID":"221735046","FILE":"3725790","COUNTRY_CODE":"US","CLASSIFICATION_TYPE":"U","ARG_OF_PERICENTER":"68.6029","EPOCH":"2022-12-29T04:12:15.437952","ECCENTRICITY":"0.00014470","ELEMENT_SET_NO":"999","RCS_SIZE":"LARGE","OBJECT_NAME":"STARLINK-1043","DECAY_DATE":null,"APOAPSIS":"548.217","OBJECT_ID":"2019-074AM","BSTAR":"-0.00016789000000","PERIAPSIS":"546.213","REF_FRAME":"TEME","PERIOD":"95.592","CENTER_NAME":"EARTH","EPHEMERIS_TYPE":"0","SEMIMAJOR_AXIS":"6925.350","OBJECT_TYPE":"PAYLOAD","MEAN_MOTION":"15.06399444","MEAN_ANOMALY":"291.5115","MEAN_ELEMENT_THEORY":"SGP4","RA_OF_ASC_NODE":"63.3138","TLE_LINE1":"1 44748U 19074AM  22363.17517868 -.00002781  00000-0 -16789-3 0  9991","MEAN_MOTION_DOT":"-0.00002781","INCLINATION":"53.0548"},{"EPOCH":"2022-12-29T15:42:18.325728","ECCENTRICITY":"0.00034100","ELEMENT_SET_NO":"999","RCS_SIZE":"LARGE","OBJECT_NAME":"STARLINK-1046","DECAY_DATE":null,"APOAPSIS":"549.632","OBJECT_ID":"2019-074AQ","BSTAR":"-0.00020433000000","SITE":"AFETR","TLE_LINE2":"2 44751  53.0561  61.1731 0003410  27.0804 333.0363 15.06381508172616","LAUNCH_DATE":"2019-11-11","MEAN_MOTION_DDOT":"0.0000000000000","NORAD_CAT_ID":"44751","TIME_SYSTEM":"UTC","GP_ID":"221744524","REV_AT_EPOCH":"17261","FILE":"3725927","COUNTRY_CODE":"US","CLASSIFICATION_TYPE":"U","ARG_OF_PERICENTER":"27.0804","SEMIMAJOR_AXIS":"6925.405","OBJECT_TYPE":"PAYLOAD","MEAN_MOTION":"15.06381508","MEAN_ANOMALY":"333.0363","RA_OF_ASC_NODE":"61.1731","MEAN_ELEMENT_THEORY":"SGP4","TLE_LINE1":"1 44751U 19074AQ  22363.65437877 -.00003323  00000-0 -20433-3 0  9993","MEAN_MOTION_DOT":"-0.00003323","INCLINATION":"53.0561","PERIAPSIS":"544.909","REF_FRAME":"TEME","PERIOD":"95.593","CENTER_NAME":"EARTH","EPHEMERIS_TYPE":"0"},{"APOAPSIS":"548.378","BSTAR":"-0.00015242000000","OBJECT_ID":"2019-074AR","RCS_SIZE":"LARGE","ELEMENT_SET_NO":"999","DECAY_DATE":null,"OBJECT_NAME":"STARLINK-1047","EPOCH":"2022-12-29T09:49:19.848000","ECCENTRICITY":"0.00016240","CLASSIFICATION_TYPE":"U","ARG_OF_PERICENTER":"67.3074","FILE":"3725927","COUNTRY_CODE":"US","TIME_SYSTEM":"UTC","GP_ID":"221744518","REV_AT_EPOCH":"17285","LAUNCH_DATE":"2019-11-11","MEAN_MOTION_DDOT":"0.0000000000000","TLE_LINE2":"2 44752  53.0533  42.2577 0001624  67.3074 292.8086 15.06386923172851","SITE":"AFETR","NORAD_CAT_ID":"44752","INCLINATION":"53.0533","MEAN_MOTION_DOT":"-0.00002550","MEAN_ELEMENT_THEORY":"SGP4","RA_OF_ASC_NODE":"42.2577","TLE_LINE1":"1 44752U 19074AR  22363.40925750 -.00002550  00000-0 -15242-3 0  9992","MEAN_MOTION":"15.06386923","MEAN_ANOMALY":"292.8086","SEMIMAJOR_AXIS":"6925.389","OBJECT_TYPE":"PAYLOAD","EPHEMERIS_TYPE":"0","CENTER_NAME":"EARTH","PERIAPSIS":"546.129","REF_FRAME":"TEME","PERIOD":"95.593"},{"NORAD_CAT_ID":"44753","SITE":"AFETR","TLE_LINE2":"2 44753  53.0556  21.9422 0002444  36.7915 323.3241 15.06384756172973","LAUNCH_DATE":"2019-11-11","MEAN_MOTION_DDOT":"0.0000000000000","GP_ID":"221734299","REV_AT_EPOCH":"17297","TIME_SYSTEM":"UTC","COUNTRY_CODE":"US","FILE":"3725790","ARG_OF_PERICENTER":"36.7915","CLASSIFICATION_TYPE":"U","ECCENTRICITY":"0.00024440","EPOCH":"2022-12-29T11:32:49.473024","OBJECT_NAME":"STARLINK-1048","DECAY_DATE":null,"ELEMENT_SET_NO":"999","RCS_SIZE":"LARGE","OBJECT_ID":"2019-074AS","BSTAR":"-0.00025588000000","APOAPSIS":"548.953","PERIOD":"95.593","REF_FRAME":"TEME","PERIAPSIS":"545.568","CENTER_NAME":"EARTH","EPHEMERIS_TYPE":"0","OBJECT_TYPE":"PAYLOAD","SEMIMAJOR_AXIS":"6925.395","MEAN_ANOMALY":"323.3241","MEAN_MOTION":"15.06384756","TLE_LINE1":"1 44753U 19074AS  22363.48112816 -.00004090  00000-0 -25588-3 0  9997","RA_OF_ASC_NODE":"21.9422","MEAN_ELEMENT_THEORY":"SGP4","MEAN_MOTION_DOT":"-0.00004090","INCLINATION":"53.0556"},{"NORAD_CAT_ID":"44754","TLE_LINE2":"2 44754  53.0555  22.5206 0002406  33.0935 327.0204 15.06386139172955","SITE":"AFETR","LAUNCH_DATE":"2019-11-11","MEAN_MOTION_DDOT":"0.0000000000000","GP_ID":"221734548","REV_AT_EPOCH":"17295","TIME_SYSTEM":"UTC","COUNTRY_CODE":"US","FILE":"3725790","ARG_OF_PERICENTER":"33.0935","CLASSIFICATION_TYPE":"U","ECCENTRICITY":"0.00024060","EPOCH":"2022-12-29T08:27:03.564576","OBJECT_NAME":"STARLINK-1049","DECAY_DATE":null,"RCS_SIZE":"LARGE","ELEMENT_SET_NO":"999","OBJECT_ID":"2019-074AT","BSTAR":"-0.00008952300000","APOAPSIS":"548.922","REF_FRAME":"TEME","PERIOD":"95.593","PERIAPSIS":"545.590","CENTER_NAME":"EARTH","EPHEMERIS_TYPE":"0","OBJECT_TYPE":"PAYLOAD","SEMIMAJOR_AXIS":"6925.391","MEAN_ANOMALY":"327.0204","MEAN_MOTION":"15.06386139","TLE_LINE1":"1 44754U 19074AT  22363.35212459 -.00001615  00000-0 -89523-4 0  9998","MEAN_ELEMENT_THEORY":"SGP4","RA_OF_ASC_NODE":"22.5206","MEAN_MOTION_DOT":"-0.00001615","INCLINATION":"53.0555"},{"GP_ID":"221735798","REV_AT_EPOCH":"17269","TIME_SYSTEM":"UTC","NORAD_CAT_ID":"44757","MEAN_MOTION_DDOT":"0.0000000000000","LAUNCH_DATE":"2019-11-11","SITE":"AFETR","TLE_LINE2":"2 44757  53.0556  41.9155 0001805  58.4212 301.6953 15.06393557172690","ARG_OF_PERICENTER":"58.4212","CLASSIFICATION_TYPE":"U","COUNTRY_CODE":"US","FILE":"3725790","DECAY_DATE":null,"OBJECT_NAME":"STARLINK-1052","ELEMENT_SET_NO":"999","RCS_SIZE":"LARGE","ECCENTRICITY":"0.00018050","EPOCH":"2022-12-29T11:40:47.499168","BSTAR":"-0.00016760000000","OBJECT_ID":"2019-074AW","APOAPSIS":"548.483","PERIOD":"95.593","REF_FRAME":"TEME","PERIAPSIS":"545.983","EPHEMERIS_TYPE":"0","CENTER_NAME":"EARTH","MEAN_ANOMALY":"301.6953","MEAN_MOTION":"15.06393557","OBJECT_TYPE":"PAYLOAD","SEMIMAJOR_AXIS":"6925.368","INCLINATION":"53.0556","MEAN_MOTION_DOT":"-0.00002777","TLE_LINE1":"1 44757U 19074AW  22363.48666087 -.00002777  00000-0 -16760-3 0  9997","MEAN_ELEMENT_THEORY":"SGP4","RA_OF_ASC_NODE":"41.9155"},{"ARG_OF_PERICENTER":"53.7234","CLASSIFICATION_TYPE":"U","COUNTRY_CODE":"US","FILE":"3725790","REV_AT_EPOCH":"17243","GP_ID":"221735549","TIME_SYSTEM":"UTC","NORAD_CAT_ID":"44758","LAUNCH_DATE":"2019-11-11","MEAN_MOTION_DDOT":"0.0000000000000","TLE_LINE2":"2 44758  53.0566  61.6232 0001587  53.7234 306.3901 15.06388579172431","SITE":"AFETR","BSTAR":"-0.00011977000000","OBJECT_ID":"2019-074AX","APOAPSIS":"548.348","DECAY_DATE":null,"OBJECT_NAME":"STARLINK-1053","RCS_SIZE":"LARGE","ELEMENT_SET_NO":"999","ECCENTRICITY":"0.00015870","EPOCH":"2022-12-29T13:40:13.512576","EPHEMERIS_TYPE":"0","CENTER_NAME":"EARTH","PERIOD":"95.593","REF_FRAME":"TEME","PERIAPSIS":"546.150","INCLINATION":"53.0566","MEAN_MOTION_DOT":"-0.00002064","TLE_LINE1":"1 44758U 19074AX  22363.56960084 -.00002064  00000-0 -11977-3 0  9995","RA_OF_ASC_NODE":"61.6232","MEAN_ELEMENT_THEORY":"SGP4","MEAN_ANOMALY":"306.3901","MEAN_MOTION":"15.06388579","OBJECT_TYPE":"PAYLOAD","SEMIMAJOR_AXIS":"6925.384"},{"OBJECT_TYPE":"PAYLOAD","SEMIMAJOR_AXIS":"6925.364","MEAN_ANOMALY":"2.1245","MEAN_MOTION":"15.06395001","TLE_LINE1":"1 44759U 19074AY  22363.21941983 -.00002025  00000-0 -11709-3 0  9995","MEAN_ELEMENT_THEORY":"SGP4","RA_OF_ASC_NODE":"63.1155","INCLINATION":"53.0543","MEAN_MOTION_DOT":"-0.00002025","REF_FRAME":"TEME","PERIOD":"95.592","PERIAPSIS":"546.278","CENTER_NAME":"EARTH","EPHEMERIS_TYPE":"0","ECCENTRICITY":"0.00013730","EPOCH":"2022-12-29T05:15:57.873312","DECAY_DATE":null,"OBJECT_NAME":"STARLINK-1054","RCS_SIZE":"LARGE","ELEMENT_SET_NO":"999","BSTAR":"-0.00011709000000","OBJECT_ID":"2019-074AY","APOAPSIS":"548.180","NORAD_CAT_ID":"44759","LAUNCH_DATE":"2019-11-11","MEAN_MOTION_DDOT":"0.0000000000000","TLE_LINE2":"2 44759  53.0543  63.1155 0001373 357.9738   2.1245 15.06395001170022","SITE":"AFETR","REV_AT_EPOCH":"17002","GP_ID":"221734797","TIME_SYSTEM":"UTC","COUNTRY_CODE":"US","FILE":"3725790","ARG_OF_PERICENTER":"357.9738","CLASSIFICATION_TYPE":"U"}];
